STARLINK-32034          
1 60297U 24132V   26155.74582177 -.00000017  00000+0  11218-4 0  9991
2 60297  53.1619   7.7379 0001139  99.7162 260.3968 15.31700898104890
STARLINK-32124          
1 60298U 24132W   26156.27749964 -.00000275  00000+0  29058-5 0  9998
2 60298  53.1609   5.3711 0000942  94.7831 265.3278 15.31698810104971
STARLINK-32151          
1 60299U 24132X   26155.66769405 -.00001040  00000+0 -22955-4 0  9993
2 60299  53.1601 339.9796 0002394 140.6895 219.4280 15.30190066105273
STARLINK-32134          
1 60300U 24132Y   26156.29627351 -.00001811  00000+0 -49069-4 0  9990
2 60300  53.1622   5.4824 0001451  88.9477 271.1690 15.30176627104972
STARLINK-11147 [DTC]    
1 60301U 24133A   26156.05991751 -.00004103  00000+0 -29064-4 0  9994
2 60301  53.1594  75.7384 0001024  62.8105 297.3017 15.69680285107458
STARLINK-11128 [DTC]    
1 60302U 24133B   26156.05499547  .00002241  00000+0  23351-4 0  9993
2 60302  53.1576  75.7078 0000876  97.2132 262.8985 15.69708329107456
STARLINK-11227 [DTC]    
1 60303U 24133C   26156.05009868  .00000142  00000+0  60294-5 0  9993
2 60303  53.1601  75.6730 0001131  92.0823 268.0325 15.69702691107536
STARLINK-11224 [DTC]    
1 60304U 24133D   26156.04518326 -.00000626  00000+0 -31317-6 0  9991
2 60304  53.1591  75.6404 0000815  83.0606 277.0505 15.69706218107539
STARLINK-11115 [DTC]    
1 60305U 24133E   26156.04028062 -.00000638  00000+0 -40858-6 0  9998
2 60305  53.1594  75.6078 0001112  82.8036 277.3109 15.69704978107450
STARLINK-11109 [DTC]    
1 60306U 24133F   26156.03538519 -.00000971  00000+0 -31608-5 0  9993
2 60306  53.1593  75.5755 0001072  86.7511 273.3629 15.69695263107456
STARLINK-11223 [DTC]    
1 60307U 24133G   26156.02556507  .00008523  00000+0  75125-4 0  9990
2 60307  53.1571  75.5059 0001500  50.6568 309.4583 15.69714512107457
STARLINK-11192 [DTC]    
1 60308U 24133H   26156.03046823 -.00000013  00000+0  47566-5 0  9993
2 60308  53.1588  75.5367 0001487  38.3033 321.8090 15.69708915107453
STARLINK-11213 [DTC]    
1 60309U 24133J   26156.02065902  .00000079  00000+0  55102-5 0  9998
2 60309  53.1595  75.4749 0000825 102.1774 257.9337 15.69703180107454
STARLINK-11200 [DTC]    
1 60310U 24133K   26156.07941655 -.00013856  00000+0 -10945-3 0  9996
2 60310  53.1588  75.1281 0000232 172.7215 187.3807 15.69767248107465
STARLINK-11206 [DTC]    
1 60312U 24133M   26156.06970803  .00001596  00000+0  18035-4 0  9999
2 60312  53.1599  75.7932 0001392  62.3551 297.7608 15.69707976107459
STARLINK-11205 [DTC]    
1 60313U 24133N   26156.06480729  .00006503  00000+0  58490-4 0  9995
2 60313  53.1574  75.7605 0001071  64.7085 295.4044 15.69711825107459
STARLINK-32191          
1 60314U 24133P   26154.58670914 -.00001459  00000+0 -37143-4 0  9997
2 60314  53.1605 257.9324 0001033 107.0625 253.0489 15.30193530104798
STARLINK-32194          
1 60315U 24133Q   26154.60148080 -.00000994  00000+0 -21452-4 0  9994
2 60315  53.1603 258.0274 0000825  95.6780 264.4315 15.30196113104799
STARLINK-32192          
1 60316U 24133R   26154.76048279  .00001105  00000+0  49440-4 0  9991
2 60316  53.1609 256.8811 0000996  94.4047 265.7068 15.30199338104916
STARLINK-32189          
1 60317U 24133S   26154.59936903  .00014112  00000+0  48890-3 0  9992
2 60317  53.1602 258.0153 0001872 146.2097 213.9023 15.30117574104882
STARLINK-32190          
1 60318U 24133T   26154.58986770  .00000415  00000+0  26147-4 0  9992
2 60318  53.1600 257.9443 0001001 121.2558 238.8542 15.30200188104796
STARLINK-32182          
1 60319U 24133U   26154.60042702 -.00001388  00000+0 -34774-4 0  9991
2 60319  53.1603 258.0178 0000923  82.6718 277.4388 15.30195124104797
STARLINK-32199          
1 60320U 24133V   26154.52771643  .00000510  00000+0  29357-4 0  9992
2 60320  53.1602 258.2676 0000886 129.1477 230.9603 15.30175050104789
STARLINK-32198          
1 60321U 24133W   26154.60251575  .00001338  00000+0  57284-4 0  9998
2 60321  53.1605 258.0269 0000974  88.8149 271.2964 15.30208099104883
HULIANWAN GAOGUI-02 (H*)
1 60327U 24135A   26156.23713160 -.00000160  00000+0  00000+0 0  9992
2 60327   0.0419 353.0776 0007983  15.1546 124.0045  1.00271173  7380
STARLINK-31745          
1 60329U 24136A   26153.84506855  .00000297  00000+0  21329-4 0  9992
2 60329  53.1611  40.0302 0001247  60.5127 299.5999 15.31703691103915
STARLINK-32153          
1 60330U 24136B   26155.97238184  .00000265  00000+0  21079-4 0  9994
2 60330  53.1619  30.5522 0001405  82.6571 277.4590 15.30191451103025
STARLINK-32203          
1 60331U 24136C   26155.00002315  .00034246  00000+0  10215-2 0  9998
2 60331  53.1594  24.5924 0001202  64.8468 248.0148 15.34355774  5881
STARLINK-32171          
1 60332U 24136D   26154.74711616  .00000433  00000+0  26738-4 0  9990
2 60332  53.1608  35.7165 0000720  66.0111 294.0966 15.30195846102843
STARLINK-32133          
1 60333U 24136E   26155.96604829  .00002312  00000+0  90147-4 0  9996
2 60333  53.1620  30.5136 0001322  92.3085 267.8067 15.30206634103029
