OBJECT_NAME,OBJECT_ID,EPOCH,MEAN_MOTION,ECCENTRICITY,INCLINATION,RA_OF_ASC_NODE,ARG_OF_PERICENTER,MEAN_ANOMALY,EPHEMERIS_TYPE,CLASSIFICATION_TYPE,NORAD_CAT_ID,ELEMENT_SET_NO,REV_AT_EPOCH,BSTAR,MEAN_MOTION_DOT,MEAN_MOTION_DDOT
STARLINK-32034,2024-132V,2026-06-04T17:53:59.000928,15.31700898,.0001139,53.1619,7.7379,99.7162,260.3968,0,U,60297,999,10489,.11218E-4,-.17E-6,0
STARLINK-32124,2024-132W,2026-06-05T06:39:35.968896,15.31698810,.00009424,53.1609,5.3711,94.7831,265.3278,0,U,60298,999,10497,.2905766E-5,-.275E-5,0
STARLINK-32151,2024-132X,2026-06-04T16:01:28.765920,15.30190066,.00023945,53.1601,339.9796,140.6895,219.4280,0,U,60299,999,10527,-.22955304E-4,-.104E-4,0
STARLINK-32134,2024-132Y,2026-06-05T07:06:38.031264,15.30176627,.00014519,53.1622,5.4824,88.9477,271.1690,0,U,60300,999,10497,-.49068871E-4,-.1811E-4,0
STARLINK-11147 [DTC],2024-133A,2026-06-05T01:26:16.872864,15.69680285,.00010249,53.1594,75.7384,62.8105,297.3017,0,U,60301,999,10745,-.29063644E-4,-.4103E-4,0
STARLINK-11128 [DTC],2024-133B,2026-06-05T01:19:11.608608,15.69708329,.00008769,53.1576,75.7078,97.2132,262.8985,0,U,60302,999,10745,.23351357E-4,.2241E-4,0
STARLINK-11227 [DTC],2024-133C,2026-06-05T01:12:08.525952,15.69702691,.00011311,53.1601,75.6730,92.0823,268.0325,0,U,60303,999,10753,.6029438E-5,.142E-5,0
STARLINK-11224 [DTC],2024-133D,2026-06-05T01:05:03.833664,15.69706218,.00008151,53.1591,75.6404,83.0606,277.0505,0,U,60304,999,10753,-.313169E-6,-.626E-5,0
STARLINK-11115 [DTC],2024-133E,2026-06-05T00:58:00.245568,15.69704978,.00011126,53.1594,75.6078,82.8036,277.3109,0,U,60305,999,10745,-.408583E-6,-.638E-5,0
STARLINK-11109 [DTC],2024-133F,2026-06-05T00:50:57.280416,15.69695263,.00010724,53.1593,75.5755,86.7511,273.3629,0,U,60306,999,10745,-.3160766E-5,-.971E-5,0
STARLINK-11223 [DTC],2024-133G,2026-06-05T00:36:48.822048,15.69714512,.00015002,53.1571,75.5059,50.6568,309.4583,0,U,60307,999,10745,.75124815E-4,.8523E-4,0
STARLINK-11192 [DTC],2024-133H,2026-06-05T00:43:52.455072,15.69708915,.00014878,53.1588,75.5367,38.3033,321.8090,0,U,60308,999,10745,.4756606E-5,-.13E-6,0
STARLINK-11213 [DTC],2024-133J,2026-06-05T00:29:44.939328,15.69703180,.00008258,53.1595,75.4749,102.1774,257.9337,0,U,60309,999,10745,.5510204E-5,.79E-6,0
STARLINK-11200 [DTC],2024-133K,2026-06-05T01:54:21.589920,15.69767248,.00002326,53.1588,75.1281,172.7215,187.3807,0,U,60310,999,10746,-.10944682E-3,-.13856E-3,0
STARLINK-11206 [DTC],2024-133M,2026-06-05T01:40:22.773792,15.69707976,.0001392,53.1599,75.7932,62.3551,297.7608,0,U,60312,999,10745,.18035106E-4,.1596E-4,0
STARLINK-11205 [DTC],2024-133N,2026-06-05T01:33:19.349856,15.69711825,.00010718,53.1574,75.7605,64.7085,295.4044,0,U,60313,999,10745,.58489718E-4,.6503E-4,0
STARLINK-32191,2024-133P,2026-06-03T14:04:51.669696,15.30193530,.00010333,53.1605,257.9324,107.0625,253.0489,0,U,60314,999,10479,-.37143002E-4,-.1459E-4,0
STARLINK-32194,2024-133Q,2026-06-03T14:26:07.941120,15.30196113,.00008258,53.1603,258.0274,95.6780,264.4315,0,U,60315,999,10479,-.21452077E-4,-.994E-5,0
STARLINK-32192,2024-133R,2026-06-03T18:15:05.713056,15.30199338,.00009967,53.1609,256.8811,94.4047,265.7068,0,U,60316,999,10491,.49440392E-4,.1105E-4,0
STARLINK-32189,2024-133S,2026-06-03T14:23:05.484192,15.30117574,.00018721,53.1602,258.0153,146.2097,213.9023,0,U,60317,999,10488,.48890469E-3,.14112E-3,0
STARLINK-32190,2024-133T,2026-06-03T14:09:24.569280,15.30200188,.00010018,53.1600,257.9443,121.2558,238.8542,0,U,60318,999,10479,.26146644E-4,.415E-5,0
STARLINK-32182,2024-133U,2026-06-03T14:24:36.894528,15.30195124,.00009235,53.1603,258.0178,82.6718,277.4388,0,U,60319,999,10479,-.34774406E-4,-.1388E-4,0
STARLINK-32199,2024-133V,2026-06-03T12:39:54.699552,15.30175050,.00008862,53.1602,258.2676,129.1477,230.9603,0,U,60320,999,10478,.29356986E-4,.51E-5,0
STARLINK-32198,2024-133W,2026-06-03T14:27:37.360800,15.30208099,.00009748,53.1605,258.0269,88.8149,271.2964,0,U,60321,999,10488,.57284047E-4,.1338E-4,0
HULIANWAN GAOGUI-02 (HG-02),2024-135A,2026-06-05T05:41:28.170240,1.00271173,.00079835,0.0419,353.0776,15.1546,124.0045,0,U,60327,999,738,0,-.16E-5,0
STARLINK-31745,2024-136A,2026-06-02T20:16:53.922720,15.31703691,.0001247,53.1611,40.0302,60.5127,299.5999,0,U,60329,999,10391,.213293E-4,.297E-5,0
STARLINK-32153,2024-136B,2026-06-04T23:20:13.790976,15.30191451,.0001405,53.1619,30.5522,82.6571,277.4590,0,U,60330,999,10302,.21079435E-4,.265E-5,0
STARLINK-32203,2024-136C,2026-06-04T00:00:02.000160,15.34355774,.00012029,53.1594,24.5924,64.8468,248.0148,0,U,60331,999,588,.10214973E-2,.34246E-3,0
STARLINK-32171,2024-136D,2026-06-03T17:55:50.836224,15.30195846,.00007204,53.1608,35.7165,66.0111,294.0966,0,U,60332,999,10284,.26737573E-4,.433E-5,0
STARLINK-32133,2024-136E,2026-06-04T23:11:06.572256,15.30206634,.00013223,53.1620,30.5136,92.3085,267.8067,0,U,60333,999,10302,.90147293E-4,.2312E-4,0
